{"type": "FeatureCollection", "features": [ {"type": "Feature", "properties": {"norad_id": 67030, "name": "STARLINK-36138", "group": "last-30-days", "lat": 15.860580953638772, "lon": -82.69444996739313, "alt_km": 335.216797875004, "timestamp": "2025-12-23T16:57:11.064319+00:00", "meta": {"OBJECT_NAME": "STARLINK-36138", "OBJECT_ID": "2025-294A", "EPOCH": "2025-12-23T06:00:00.999648", "MEAN_MOTION": 15.79559912, "ECCENTRICITY": 0.00014523, "INCLINATION": 42.9995, "RA_OF_ASC_NODE": 117.8418, "ARG_OF_PERICENTER": 276.6002, "MEAN_ANOMALY": 163.0269, "EPHEMERIS_TYPE": 0, "CLASSIFICATION_TYPE": "U", "NORAD_CAT_ID": 67030, "ELEMENT_SET_NO": 999, "REV_AT_EPOCH": 180, "BSTAR": -0.01165786, "MEAN_MOTION_DOT": -0.01909308, "MEAN_MOTION_DDOT": 0}, "tle": {"line1": "1 67030U 25294A   25357.25001157 -.01909308  00000+0 -11658-1 0  9994", "line2": "2 67030  42.9995 117.8418 0001452 276.6002 163.0269 15.79559912  1800"}}, "geometry": {"type": "Point", "coordinates": [-82.69444996739313, 15.860580953638772]}}, {"type": "Feature", "properties": {"norad_id": 67031, "name": "STARLINK-36150", "group": "last-30-days", "lat": 14.69612319128058, "lon": -81.29430663403956, "alt_km": 335.4955432788447, "timestamp": "2025-12-23T16:57:11.064329+00:00", "meta": {"OBJECT_NAME": "STARLINK-36150", "OBJECT_ID": "2025-294B", "EPOCH": "2025-12-23T06:00:00.999648", "MEAN_MOTION": 15.79563154, "ECCENTRICITY": 0.0001491, "INCLINATION": 42.9997, "RA_OF_ASC_NODE": 117.8371, "ARG_OF_PERICENTER": 283.0301, "MEAN_ANOMALY": 158.372, "EPHEMERIS_TYPE": 0, "CLASSIFICATION_TYPE": "U", "NORAD_CAT_ID": 67031, "ELEMENT_SET_NO": 999, "REV_AT_EPOCH": 199, "BSTAR": -0.011623767, "MEAN_MOTION_DOT": -0.01904748, "MEAN_MOTION_DDOT": 0}, "tle": {"line1": "1 67031U 25294B   25357.25001157 -.01904748  00000+0 -11624-1 0  9991", "line2": "2 67031  42.9997 117.8371 0001491 283.0301 158.3720 15.79563154  1990"}}, "geometry": {"type": "Point", "coordinates": [-81.29430663403956, 14.69612319128058]}}, {"type": "Feature", "properties": {"norad_id": 67032, "name": "STARLINK-36131", "group": "last-30-days", "lat": 11.94778437404277, "lon": -78.08290486456994, "alt_km": 335.76978375140334, "timestamp": "2025-12-23T16:57:11.064339+00:00", "meta": {"OBJECT_NAME": "STARLINK-36131", "OBJECT_ID": "2025-294C", "EPOCH": "2025-12-23T06:00:00.999648", "MEAN_MOTION": 15.79549096, "ECCENTRICITY": 0.00015697, "INCLINATION": 42.9998, "RA_OF_ASC_NODE": 117.8265, "ARG_OF_PERICENTER": 277.068, "MEAN_ANOMALY": 168.5274, "EPHEMERIS_TYPE": 0, "CLASSIFICATION_TYPE": "U", "NORAD_CAT_ID": 67032, "ELEMENT_SET_NO": 999, "REV_AT_EPOCH": 180, "BSTAR": -0.011633813, "MEAN_MOTION_DOT": -0.01905178, "MEAN_MOTION_DDOT": 0}, "tle": {"line1": "1 67032U 25294C   25357.25001157 -.01905178  00000+0 -11634-1 0  9991", "line2": "2 67032  42.9998 117.8265 0001569 277.0680 168.5274 15.79549096  1809"}}, "geometry": {"type": "Point", "coordinates": [-78.08290486456994, 11.94778437404277]}}, {"type": "Feature", "properties": {"norad_id": 67033, "name": "STARLINK-36137", "group": "last-30-days", "lat": 13.337114190575292, "lon": -79.69126971600309, "alt_km": 335.6669474854443, "timestamp": "2025-12-23T16:57:11.064349+00:00", "meta": {"OBJECT_NAME": "STARLINK-36137", "OBJECT_ID": "2025-294D", "EPOCH": "2025-12-23T06:00:00.999648", "MEAN_MOTION": 15.79557338, "ECCENTRICITY": 0.00015108, "INCLINATION": 42.9994, "RA_OF_ASC_NODE": 117.832, "ARG_OF_PERICENTER": 281.8601, "MEAN_ANOMALY": 161.6206, "EPHEMERIS_TYPE": 0, "CLASSIFICATION_TYPE": "U", "NORAD_CAT_ID": 67033, "ELEMENT_SET_NO": 999, "REV_AT_EPOCH": 180, "BSTAR": -0.011628998, "MEAN_MOTION_DOT": -0.01905066, "MEAN_MOTION_DDOT": 0}, "tle": {"line1": "1 67033U 25294D   25357.25001157 -.01905066  00000+0 -11629-1 0  9992", "line2": "2 67033  42.9994 117.8320 0001510 281.8601 161.6206 15.79557338  1807"}}, "geometry": {"type": "Point", "coordinates": [-79.69126971600309, 13.337114190575292]}}, {"type": "Feature", "properties": {"norad_id": 67034, "name": "STARLINK-36140", "group": "last-30-days", "lat": 10.463616621320007, "lon": -76.39410965349393, "alt_km": 336.05284859925723, "timestamp": "2025-12-23T16:57:11.064361+00:00", "meta": {"OBJECT_NAME": "STARLINK-36140", "OBJECT_ID": "2025-294E", "EPOCH": "2025-12-23T06:00:00.999648", "MEAN_MOTION": 15.79541048, "ECCENTRICITY": 0.0001539, "INCLINATION": 42.9995, "RA_OF_ASC_NODE": 117.8212, "ARG_OF_PERICENTER": 280.0207, "MEAN_ANOMALY": 167.8207, "EPHEMERIS_TYPE": 0, "CLASSIFICATION_TYPE": "U", "NORAD_CAT_ID": 67034, "ELEMENT_SET_NO": 999, "REV_AT_EPOCH": 180, "BSTAR": -0.011686799, "MEAN_MOTION_DOT": -0.01912055, "MEAN_MOTION_DDOT": 0}, "tle": {"line1": "1 67034U 25294E   25357.25001157 -.01912055  00000+0 -11687-1 0  9993", "line2": "2 67034  42.9995 117.8212 0001539 280.0207 167.8207 15.79541048  1803"}}, "geometry": {"type": "Point", "coordinates": [-76.39410965349393, 10.463616621320007]}}, {"type": "Feature", "properties": {"norad_id": 67035, "name": "STARLINK-36085", "group": "last-30-days", "lat": 7.443136610013083, "lon": -73.03357084810118, "alt_km": 336.37256037388033, "timestamp": "2025-12-23T16:57:11.064375+00:00", "meta": {"OBJECT_NAME": "STARLINK-36085", "OBJECT_ID": "2025-294F", "EPOCH": "2025-12-23T06:00:00.999648", "MEAN_MOTION": 15.7951314, "ECCENTRICITY": 0.00015835, "INCLINATION": 42.9998, "RA_OF_ASC_NODE": 117.8096, "ARG_OF_PERICENTER": 275.3472, "MEAN_ANOMALY": 177.0367, "EPHEMERIS_TYPE": 0, "CLASSIFICATION_TYPE": "U", "NORAD_CAT_ID": 67035, "ELEMENT_SET_NO": 999, "REV_AT_EPOCH": 180, "BSTAR": -0.011702858, "MEAN_MOTION_DOT": -0.01912237, "MEAN_MOTION_DDOT": 0}, "tle": {"line1": "1 67035U 25294F   25357.25001157 -.01912237  00000+0 -11703-1 0  9995", "line2": "2 67035  42.9998 117.8096 0001583 275.3472 177.0367 15.79513140  1809"}}, "geometry": {"type": "Point", "coordinates": [-73.03357084810118, 7.443136610013083]}}, {"type": "Feature", "properties": {"norad_id": 67036, "name": "STARLINK-36125", "group": "last-30-days", "lat": 8.95763591539717, "lon": -74.7073029197616, "alt_km": 336.228606949765, "timestamp": "2025-12-23T16:57:11.064386+00:00", "meta": {"OBJECT_NAME": "STARLINK-36125", "OBJECT_ID": "2025-294G", "EPOCH": "2025-12-23T06:00:00.999648", "MEAN_MOTION": 15.79522893, "ECCENTRICITY": 0.00014056, "INCLINATION": 42.9997, "RA_OF_ASC_NODE": 117.8154, "ARG_OF_PERICENTER": 280.553, "MEAN_ANOMALY": 169.5571, "EPHEMERIS_TYPE": 0, "CLASSIFICATION_TYPE": "U", "NORAD_CAT_ID": 67036, "ELEMENT_SET_NO": 999, "REV_AT_EPOCH": 199, "BSTAR": -0.011647948, "MEAN_MOTION_DOT": -0.01905024, "MEAN_MOTION_DDOT": 0}, "tle": {"line1": "1 67036U 25294G   25357.25001157 -.01905024  00000+0 -11648-1 0  9990", "line2": "2 67036  42.9997 117.8154 0001405 280.5530 169.5571 15.79522893  1998"}}, "geometry": {"type": "Point", "coordinates": [-74.7073029197616, 8.95763591539717]}}, {"type": "Feature", "properties": {"norad_id": 67037, "name": "STARLINK-35732", "group": "last-30-days", "lat": 5.8405112406820185, "lon": -71.28230108463184, "alt_km": 336.70950389875, "timestamp": "2025-12-23T16:57:11.064396+00:00", "meta": {"OBJECT_NAME": "STARLINK-35732", "OBJECT_ID": "2025-294H", "EPOCH": "2025-12-23T06:00:00.999648", "MEAN_MOTION": 15.79494031, "ECCENTRICITY": 0.00015189, "INCLINATION": 42.9995, "RA_OF_ASC_NODE": 117.8037, "ARG_OF_PERICENTER": 279.7847, "MEAN_ANOMALY": 175.0002, "EPHEMERIS_TYPE": 0, "CLASSIFICATION_TYPE": "U", "NORAD_CAT_ID": 67037, "ELEMENT_SET_NO": 999, "REV_AT_EPOCH": 191, "BSTAR": -0.011729264, "MEAN_MOTION_DOT": -0.01914447, "MEAN_MOTION_DDOT": 0}, "tle": {"line1": "1 67037U 25294H   25357.25001157 -.01914447  00000+0 -11729-1 0  9990", "line2": "2 67037  42.9995 117.8037 0001518 279.7847 175.0002 15.79494031  1918"}}, "geometry": {"type": "Point", "coordinates": [-71.28230108463184, 5.8405112406820185]}}, {"type": "Feature", "properties": {"norad_id": 67038, "name": "STARLINK-35775", "group": "last-30-days", "lat": 4.410925870540214, "lon": -69.73395723234772, "alt_km": 336.9391215881078, "timestamp": "2025-12-23T16:57:11.064406+00:00", "meta": {"OBJECT_NAME": "STARLINK-35775", "OBJECT_ID": "2025-294J", "EPOCH": "2025-12-23T06:00:00.999648", "MEAN_MOTION": 15.7948144, "ECCENTRICITY": 0.00014761, "INCLINATION": 42.9996, "RA_OF_ASC_NODE": 117.7981, "ARG_OF_PERICENTER": 282.5497, "MEAN_ANOMALY": 174.3556, "EPHEMERIS_TYPE": 0, "CLASSIFICATION_TYPE": "U", "NORAD_CAT_ID": 67038, "ELEMENT_SET_NO": 999, "REV_AT_EPOCH": 191, "BSTAR": -0.011690888, "MEAN_MOTION_DOT": -0.0190801, "MEAN_MOTION_DDOT": 0}, "tle": {"line1": "1 67038U 25294J   25357.25001157 -.01908010  00000+0 -11691-1 0  9998", "line2": "2 67038  42.9996 117.7981 0001476 282.5497 174.3556 15.79481440  1919"}}, "geometry": {"type": "Point", "coordinates": [-69.73395723234772, 4.410925870540214]}}, {"type": "Feature", "properties": {"norad_id": 67039, "name": "STARLINK-35705", "group": "last-30-days", "lat": 1.4695918119235665, "lon": -66.57375348707998, "alt_km": 337.1431777597327, "timestamp": "2025-12-23T16:57:11.064416+00:00", "meta": {"OBJECT_NAME": "STARLINK-35705", "OBJECT_ID": "2025-294K", "EPOCH": "2025-12-23T06:00:00.999648", "MEAN_MOTION": 15.79468102, "ECCENTRICITY": 0.0001317, "INCLINATION": 42.9997, "RA_OF_ASC_NODE": 117.7874, "ARG_OF_PERICENTER": 276.6983, "MEAN_ANOMALY": 184.5591, "EPHEMERIS_TYPE": 0, "CLASSIFICATION_TYPE": "U", "NORAD_CAT_ID": 67039, "ELEMENT_SET_NO": 999, "REV_AT_EPOCH": 180, "BSTAR": -0.0117733, "MEAN_MOTION_DOT": -0.01918485, "MEAN_MOTION_DDOT": 0}, "tle": {"line1": "1 67039U 25294K   25357.25001157 -.01918485  00000+0 -11773-1 0  9997", "line2": "2 67039  42.9997 117.7874 0001317 276.6983 184.5591 15.79468102  1800"}}, "geometry": {"type": "Point", "coordinates": [-66.57375348707998, 1.4695918119235665]}}]}